{
"type": "FeatureCollection",
"name": "gedung-upi-point",
"features": [
{ "type": "Feature", "properties": { "name": "Asrama UPI A", "category": "Fasilitas", "image": "images/asrama-upi-a.jpg", "description": "Fasilitas hunian mahasiswa yang dikelola universitas untuk menyediakan sarana tinggal yang aman dan nyaman. Setiap kamar dilengkapi dengan tempat tidur, meja belajar, dan lemari penyimpanan. Penghuni mendapatkan layanan keamanan 24 jam dan lingkungan yang kondusif untuk belajar.", "hours": "24 Jam", "floors": 4, "phone": "(022) 2013163 ext. 9001", "facilities": [ "Kamar Tidur", "Kamar Mandi", "Ruang Belajar", "Dapur Bersama", "Keamanan 24 Jam" ], "LinkWeb": null }, "geometry": { "type": "Point", "coordinates": [ 107.59186198, -6.85967962 ] } },
{ "type": "Feature", "properties": { "name": "Asrama UPI B", "category": "Fasilitas", "image": "images/asrama-upi-b.jpg", "description": "Fasilitas hunian mahasiswa yang dikelola universitas dengan standar kenyamanan yang terjaga. Lingkungan asrama yang aman dan nyaman mendukung kehidupan akademik mahasiswa UPI. Tersedia fasilitas bersama termasuk ruang santai dan mushola.", "hours": "24 Jam", "floors": 4, "phone": "(022) 2013163 ext. 9002", "facilities": [ "Kamar Tidur", "Kamar Mandi", "Ruang Belajar", "Mushola", "Keamanan 24 Jam" ] }, "geometry": { "type": "Point", "coordinates": [ 107.59132073, -6.85951443 ] } },
{ "type": "Feature", "properties": { "name": "Asrama UPI C", "category": "Fasilitas", "image": "images/asrama-upi-c.jpg", "description": "Asrama C UPI adalah hunian mahasiswa yang dikelola oleh universitas dengan suasana tenang dan kondusif. Berdekatan dengan fasilitas olahraga kampus sehingga mendukung gaya hidup aktif dan sehat. Terdapat area komunal untuk kegiatan bersama penghuni.", "hours": "24 Jam", "floors": 4, "phone": "(022) 2013163 ext. 9003", "facilities": [ "Kamar Tidur", "Kamar Mandi", "Ruang Komunal", "Area Olahraga Ringan" ] }, "geometry": { "type": "Point", "coordinates": [ 107.59198226, -6.8594388 ] } },
{ "type": "Feature", "properties": { "name": "Asrama UPI D", "category": "Fasilitas", "image": "images/asrama-upi-d.jpg", "description": "Asrama D UPI menyediakan hunian bagi mahasiswa dengan sistem keamanan terintegrasi dan tata tertib yang jelas. Mahasiswa dapat menikmati suasana kampus yang asri dari kawasan asrama ini. Dikelola secara profesional oleh unit kemahasiswaan UPI.", "hours": "24 Jam", "floors": 4, "phone": "(022) 2013163 ext. 9004", "facilities": [ "Kamar Tidur", "Kamar Mandi", "Ruang Belajar", "Keamanan 24 Jam" ] }, "geometry": { "type": "Point", "coordinates": [ 107.59140091, -6.85914623 ] } },
{ "type": "Feature", "properties": { "name": "Asrama UPI E", "category": "Fasilitas", "image": "images/asrama-upi-e.jpg", "description": "Asrama E UPI merupakan fasilitas hunian mahasiswa yang terletak di kawasan tenang ujung selatan kampus. Lingkungan sekitarnya yang hijau menciptakan suasana belajar yang kondusif dan nyaman. Dikelola dengan standar kebersihan dan keamanan yang baik.", "hours": "24 Jam", "floors": 4, "phone": "(022) 2013163 ext. 9005", "facilities": [ "Kamar Tidur", "Kamar Mandi", "Ruang Bersama", "Area Hijau" ] }, "geometry": { "type": "Point", "coordinates": [ 107.59157131, -6.8588437 ] } },
{ "type": "Feature", "properties": { "name": "Pusat Administrasi Universitas", "category": "Administrasi", "image": "images/baak.jpg", "description": "usat tata kelola strategis yang mengintegrasikan berbagai direktorat, biro, dan unit kerja untuk mendukung penyelenggaraan pendidikan, keuangan, sarana prasarana, serta layanan umum universitas secara modern.", "hours": "Senin–Jumat: 08.00–15.30", "floors": 4, "phone": "(022) 2013163 ext. 1100", "facilities": [ "Loket Pelayanan", "Ruang Tunggu", "Mesin Antrian", "Fotokopi Dekat" ], "LinkWeb": null }, "geometry": { "type": "Point", "coordinates": [ 107.59224486, -6.86234063 ] } },
{ "type": "Feature", "properties": { "name": "BNI UPI Bandung", "category": "Layanan & Perbankan", "image": "images/bni-upi.jpg", "description": "Kantor cabang pembantu BNI di kampus UPI melayani kebutuhan perbankan civitas akademika. Tersedia layanan pembayaran UKT, pembukaan rekening, transfer, dan berbagai produk perbankan lainnya. ATM BNI beroperasi 24 jam di lokasi ini untuk kemudahan transaksi kapan saja.", "hours": "Senin–Jumat: 08.00–15.00", "floors": 1, "phone": "1500046", "facilities": [ "Teller", "Customer Service", "ATM 24 Jam", "Pembayaran UKT" ] }, "geometry": { "type": "Point", "coordinates": [ 107.59501326, -6.86309295 ] } },
{ "type": "Feature", "properties": { "name": "Gedung Achmad Sanusi", "category": "Fasilitas", "image": "images/achmad-sanusi.jpg", "description": "Gedung Achmad Sanusi merupakan balai pertemuan utama universitas yang berfungsi sebagai gedung serbaguna untuk acara formal, wisuda, dan seminar internasional. Dinamai untuk menghormati jasa salah seorang tokoh pendidikan UPI. Kapasitasnya yang besar menjadikannya pilihan utama untuk acara-acara berskala universitas.", "hours": "Senin–Jumat: 08.00–16.00 (saat ada acara)", "floors": 4, "phone": "(022) 2013163 ext. 1300", "facilities": [ "Aula Utama", "Ruang Seminar", "Ruang Rapat VIP", "Sound System" ], "LinkWeb": "https://sarpras.upi.edu/asal-mula-gedung-achmad-sanusi-universitas-pendidikan-indonesia/" }, "geometry": { "type": "Point", "coordinates": [ 107.59289035, -6.86323824 ] } },
{ "type": "Feature", "properties": { "name": "Gedung Amphitheater UPI", "category": "Fasilitas", "image": "images/amphitheater.jpg", "description": "Gedung Amphitheater UPI merupakan ruang terbuka publik bergaya teater yang digunakan untuk pementasan seni, diskusi akademik, dan kegiatan kemahasiswaan berskala besar. Desain arsitekturnya yang unik menciptakan suasana pertunjukan yang dramatis. Sering digunakan untuk pentas seni, sidang terbuka, dan acara wisuda outdoor.", "hours": "Tergantung jadwal acara", "floors": 1, "phone": "(022) 2013163 ext. 1301", "facilities": [ "Panggung Terbuka", "Area Penonton", "Sound System", "Lighting" ], "LinkWeb": null }, "geometry": { "type": "Point", "coordinates": [ 107.59355188, -6.86212369 ] } },
{ "type": "Feature", "properties": { "name": "Gedung Arsip UPI", "category": "Fasilitas", "image": "images/gedung-arsip.jpg", "description": "Unit pengelolaan dan penyimpanan dokumen sejarah serta administrasi penting universitas secara terpadu. Di sini disimpan berbagai arsip akademik dan sejarah perkembangan UPI sejak berdirinya. Dikelola oleh Biro Administrasi Umum dengan sistem kearsipan digital dan fisik.", "hours": "Senin–Jumat: 08.00–15.00", "floors": 3, "phone": "(022) 2013163 ext. 1001", "facilities": [ "Ruang Arsip Fisik", "Sistem Arsip Digital", "Ruang Baca Arsip" ], "LinkWeb": "https://arsip.upi.edu/" }, "geometry": { "type": "Point", "coordinates": [ 107.59304672, -6.86172961 ] } },
{ "type": "Feature", "properties": { "name": "Balai Bahasa UPI", "category": "Pendidikan & Layanan", "image": "images/balai-bahasa.jpg", "description": "Balai Bahasa UPI menyelenggarakan layanan pelatihan, kursus, dan sertifikasi bahasa untuk civitas akademika dan masyarakat umum. Program unggulannya mencakup TOEFL/IELTS preparation, Uji Kemahiran Bahasa Indonesia, dan kursus bahasa asing. Lembaga ini terakreditasi dan diakui oleh berbagai instansi pendidikan.", "hours": "Senin–Jumat: 08.00–16.00", "floors": 3, "phone": "(022) 2013163 ext. 2502", "facilities": [ "Lab Bahasa Digital", "Ruang Kelas", "Ruang Ujian Sertifikasi", "Ruang Konsultasi" ], "LinkWeb": "https://balaibahasa.upi.edu/" }, "geometry": { "type": "Point", "coordinates": [ 107.59144702, -6.86061108 ] } },
{ "type": "Feature", "properties": { "name": "Gedung Center of Excellence (COE) UPI", "category": "Pendidikan", "image": "images/coe.jpg", "description": "Pusat keunggulan riset dan pengembangan inovasi teknologi pendidikan yang mendukung standar universitas kelas dunia. COE memfasilitasi penelitian kolaboratif antar disiplin dan menjadi jembatan antara dunia akademik dan industri. Gedung ini dilengkapi dengan fasilitas riset mutakhir, inkubator bisnis, dan ruang kolaborasi inovatif.", "hours": "Senin–Jumat: 08.00–17.00", "floors": 6, "phone": "(022) 2013163 ext. 4001", "facilities": [ "Lab Inovasi", "Inkubator Bisnis", "Ruang Kolaborasi", "Ruang Presentasi" ] }, "geometry": { "type": "Point", "coordinates": [ 107.59260971, -6.86417765 ] } },
{ "type": "Feature", "properties": { "name": "Gedung Fakultas Pendidikan Ekonomi dan Bisnis (FPEB)", "category": "Pendidikan", "image": "images/fpeb.jpg", "description": "Gedung utama FPEB UPI menyelenggarakan program studi pendidikan ekonomi, akuntansi, manajemen bisnis, dan koperasi. Dilengkapi dengan laboratorium komputer akuntansi, pusat simulasi bisnis, dan galeri kewirausahaan mahasiswa. FPEB aktif menjalin kemitraan dengan dunia usaha dan industri untuk pengembangan karir mahasiswa.", "hours": "Senin–Jumat: 07.00–17.00", "floors": 6, "phone": "(022) 2013163 ext. 2301", "facilities": [ "Lab Akuntansi", "Lab Komputer Bisnis", "Pusat Wirausaha", "Ruang Seminar", "Perpustakaan Ekonomi" ], "LinkWeb": "https://www.upi.edu/id/fakultas-dan-sekolah/fakultas-pendidikan-ekonomi-dan-bisnis" }, "geometry": { "type": "Point", "coordinates": [ 107.59244132, -6.86011749 ] } },
{ "type": "Feature", "properties": { "name": "Gedung Fakultas Pendidikan Ekonomi dan Bisnis (FPEB) B", "category": "Pendidikan", "image": "images/fpeb-b.jpg", "description": "Gedung B FPEB UPI digunakan sebagai penunjang kegiatan perkuliahan, laboratorium, dan penelitian ekonomi bisnis. Gedung ini menampung ruang kuliah kapasitas besar dan laboratorium manajemen modern. Program studi manajemen dan akuntansi aktif menggunakan fasilitas unggulan gedung ini.", "hours": "Senin–Jumat: 07.00–17.00", "floors": 4, "phone": "(022) 2013163 ext. 2302", "facilities": [ "Lab Manajemen", "Ruang Kuliah Besar", "Ruang Diskusi" ], "LinkWeb": "https://www.upi.edu/id/fakultas-dan-sekolah/fakultas-pendidikan-ekonomi-dan-bisnis" }, "geometry": { "type": "Point", "coordinates": [ 107.59242929, -6.85971147 ] } },
{ "type": "Feature", "properties": { "name": "Gedung Fakultas Ilmu Pendidikan (FIP) A", "category": "Pendidikan", "image": "images/fip.jpg", "description": "Gedung utama Fakultas Ilmu Pendidikan (FIP) UPI menyelenggarakan program studi teknologi pendidikan, manajemen pendidikan, pendidikan luar sekolah, dan psikologi pendidikan. Dilengkapi dengan laboratorium pendidikan mutakhir dan Pusat Sumber Belajar. FIP adalah salah satu fakultas tertua dan paling bergengsi di UPI.", "hours": "Senin–Jumat: 07.00–17.00", "floors": 7, "phone": "(022) 2013163 ext. 2100", "facilities": [ "Lab Pendidikan", "Pusat Sumber Belajar", "Ruang Seminar", "Ruang Dosen", "Perpustakaan Fakultas" ], "LinkWeb": "https://www.upi.edu/id/fakultas-dan-sekolah/fakultas-ilmu-pendidikan" }, "geometry": { "type": "Point", "coordinates": [ 107.59099798, -6.86142311 ] } },
{ "type": "Feature", "properties": { "name": "Gedung Fakultas Ilmu Pendidikan (FIP) B", "category": "Pendidikan", "image": "images/fip-b.jpg", "description": "Gedung B FIP UPI merupakan gedung penunjang yang menampung ruang kuliah, laboratorium psikologi, dan kantor program studi. FIP menyelenggarakan program studi psikologi, bimbingan konseling, dan pendidikan luar biasa yang terakreditasi. Mahasiswanya dikenal aktif dalam kegiatan kemahasiswaan dan penelitian.", "hours": "Senin–Jumat: 07.00–17.00", "floors": 5, "phone": "(022) 2013163 ext. 2101", "facilities": [ "Lab Psikologi", "Ruang BK", "Ruang Kuliah", "Ruang Dosen" ], "LinkWeb": "https://www.upi.edu/id/fakultas-dan-sekolah/fakultas-ilmu-pendidikan" }, "geometry": { "type": "Point", "coordinates": [ 107.59080554, -6.86172961 ] } },
{ "type": "Feature", "properties": { "name": "Gedung Fakultas Kedokteran (FK) UPI", "category": "Pendidikan", "image": "images/fk.jpg", "description": "Gedung Fakultas Kedokteran UPI adalah pusat pendidikan medis yang mencetak dokter berkualitas tinggi dengan fokus pada kesehatan komunitas. FK UPI dilengkapi dengan laboratorium anatomi, laboratorium klinik, dan fasilitas skills lab modern. Program studi kedokteran UPI terakreditasi dan bekerjasama dengan sejumlah rumah sakit mitra terkemuka.", "hours": "Senin–Jumat: 07.00–17.00", "floors": 6, "phone": "(022) 2013163 ext. 2700", "facilities": [ "Lab Anatomi", "Lab Klinik", "Skills Lab", "Perpustakaan Medis", "Ruang Praktikum" ], "LinkWeb": "https://www.upi.edu/id/fakultas-dan-sekolah/fakultas-kedokteran" }, "geometry": { "type": "Point", "coordinates": [ 107.59083761, -6.86081807 ] } },
{ "type": "Feature", "properties": { "name": "Gedung Fakultas Pendidikan Bahasa dan Sastra (FPBS)", "category": "Pendidikan", "image": "images/fpbs.jpg", "description": "FPBS UPI adalah pusat pendidikan bahasa dan sastra yang menyelenggarakan program studi bahasa Indonesia, Inggris, Jerman, Prancis, Jepang, Arab, dan Sunda. Laboratorium bahasanya dilengkapi teknologi canggih untuk mendukung pembelajaran komunikasi internasional. Lulusan FPBS dikenal kompeten dan diminati sebagai pendidik bahasa berkualitas.", "hours": "Senin–Jumat: 07.00–17.00", "floors": 6, "phone": "(022) 2013163 ext. 2501", "facilities": [ "Lab Bahasa Digital", "Ruang Kuliah", "Perpustakaan Bahasa", "Ruang Multimedia", "Pojok Budaya" ], "LinkWeb": "https://www.upi.edu/id/fakultas-dan-sekolah/fakultas-pendidikan-bahasa-dan-sastra" }, "geometry": { "type": "Point", "coordinates": [ 107.59362806, -6.86097331 ] } },
{ "type": "Feature", "properties": { "name": "Gedung Fakultas Pendidikan Ilmu Pengetahuan Sosial (FPIPS)", "category": "Pendidikan", "image": "images/fpips.jpg", "description": "FPIPS UPI menyelenggarakan program studi pendidikan geografi, sejarah, sosiologi, PKn, dan manajemen pemasaran. Dilengkapi dengan laboratorium IPS modern dan ruang kuliah berkapasitas besar untuk mendukung pembelajaran sosial yang interaktif. FPIPS aktif dalam penelitian dan pengabdian masyarakat di bidang ilmu sosial terapan.", "hours": "Senin–Jumat: 07.00–17.00", "floors": 6, "phone": "(022) 2013163 ext. 2001", "facilities": [ "Lab IPS", "Ruang Kuliah Besar", "Ruang Dosen", "Perpustakaan Fakultas", "Ruang Seminar" ], "LinkWeb": "https://www.upi.edu/id/fakultas-dan-sekolah/fakultas-pendidikan-ilmu-pengetahuan-sosial" }, "geometry": { "type": "Point", "coordinates": [ 107.59300662, -6.8612201 ] } },
{ "type": "Feature", "properties": { "name": "Gedung Fakultas Pendidikan Matematika dan IPA (FPMIPA) A", "category": "Pendidikan", "image": "images/fpmipa-a.jpg", "description": "Gedung utama FPMIPA UPI menampung program studi pendidikan matematika, fisika, kimia, biologi, dan ilmu komputer. Dilengkapi dengan laboratorium sains modern dan fasilitas penelitian terlengkap di antara gedung FPMIPA. Gedung ini menjadi pusat kegiatan akademik dan inovasi sains di kampus UPI.", "hours": "Senin–Jumat: 07.00–17.00", "floors": 7, "phone": "(022) 2013163 ext. 2201", "facilities": [ "Lab Fisika", "Lab Kimia", "Lab Biologi", "Lab Komputer Sains", "Ruang Seminar Ilmiah" ], "LinkWeb": "https://www.upi.edu/id/fakultas-dan-sekolah/fakultas-pendidikan-matematika-dan-ilmu-pengetahuan-alam" }, "geometry": { "type": "Point", "coordinates": [ 107.58995557, -6.86162214 ] } },
{ "type": "Feature", "properties": { "name": "Gedung Fakultas Pendidikan Matematika dan IPA (FPMIPA) B", "category": "Pendidikan", "image": "images/fpmipa-b.jpg", "description": "Gedung B FPMIPA UPI digunakan untuk perkuliahan dan kegiatan laboratorium riset mahasiswa S1 dan pascasarjana. Fasilitas laboratoriumnya yang modern mendukung penelitian sains terapan dan pengembangan media pembelajaran. Mahasiswa aktif bereksperimen dan berkolaborasi di gedung ini.", "hours": "Senin–Jumat: 07.00–17.00", "floors": 5, "phone": "(022) 2013163 ext. 2203", "facilities": [ "Lab Riset", "Ruang Kuliah", "Ruang Penelitian Mahasiswa" ], "LinkWeb": "https://www.upi.edu/id/fakultas-dan-sekolah/fakultas-pendidikan-matematika-dan-ilmu-pengetahuan-alam" }, "geometry": { "type": "Point", "coordinates": [ 107.59069929, -6.86229883 ] } },
{ "type": "Feature", "properties": { "name": "Gedung Fakultas Pendidikan Olahraga dan Kesehatan (FPOK) B", "category": "Pendidikan", "image": "images/fpok-b.jpg", "description": "Gedung B FPOK UPI merupakan gedung penunjang kegiatan akademik dan laboratorium fisiologi olahraga. Digunakan untuk perkuliahan teori kependidikan jasmani dan kegiatan penelitian mahasiswa tingkat lanjut. Fasilitas di sini melengkapi program studi kepelatihan dan ilmu keolahragaan.", "hours": "Senin–Jumat: 07.00–17.00", "floors": 4, "phone": "(022) 2013163 ext. 2901", "facilities": [ "Lab Fisiologi Olahraga", "Ruang Kuliah", "Ruang Dosen" ], "LinkWeb": "https://www.upi.edu/id/fakultas-dan-sekolah/fakultas-pendidikan-olahraga-dan-kesehatan" }, "geometry": { "type": "Point", "coordinates": [ 107.58990145, -6.86033642 ] } },
{ "type": "Feature", "properties": { "name": "Gedung Fakultas Pendidikan Olahraga dan Kesehatan (FPOK) A", "category": "Pendidikan", "image": "images/fpok.jpg", "description": "Gedung utama FPOK UPI menyelenggarakan program studi pendidikan jasmani, kepelatihan olahraga, dan ilmu keolahragaan. FPOK UPI adalah salah satu pusat pengembangan olahraga terbaik di Indonesia, menghasilkan banyak atlet nasional dan pelatih berprestasi. Lulusannya berkontribusi besar dalam pengembangan olahraga Indonesia di berbagai tingkatan.", "hours": "Senin–Jumat: 07.00–17.00", "floors": 5, "phone": "(022) 2013163 ext. 2900", "facilities": [ "Lab Biomekanik", "Ruang Kuliah", "Ruang Seminar", "Lapangan Praktik", "Perpustakaan Olahraga" ], "LinkWeb": "https://www.upi.edu/id/fakultas-dan-sekolah/fakultas-pendidikan-olahraga-dan-kesehatan" }, "geometry": { "type": "Point", "coordinates": [ 107.59003375, -6.86087777 ] } },
{ "type": "Feature", "properties": { "name": "Gedung Fakultas Pendidikan Seni dan Desain (FPSD) A", "category": "Pendidikan", "image": "images/fpsd-a.jpg", "description": "Gedung utama FPSD UPI merupakan pusat kreativitas seni dan desain kampus yang menyelenggarakan program studi pendidikan seni rupa, desain komunikasi visual, dan seni kerajinan. Fasilitas studio seni, galeri pameran, dan bengkel kerajinan mendukung eksplorasi kreativitas mahasiswa. FPSD dikenal menghasilkan seniman dan desainer berbakat yang berkarir di tingkat nasional.", "hours": "Senin–Jumat: 07.00–17.00", "floors": 5, "phone": "(022) 2013163 ext. 2401", "facilities": [ "Studio Seni Rupa", "Galeri Pameran", "Bengkel Kerajinan", "Lab Desain Digital", "Ruang Pameran" ], "LinkWeb": "https://www.upi.edu/id/fakultas-dan-sekolah/fakultas-pendidikan-seni-dan-desain" }, "geometry": { "type": "Point", "coordinates": [ 107.59300261, -6.85971545 ] } },
{ "type": "Feature", "properties": { "name": "Gedung Fakultas Pendidikan Seni dan Desain (FPSD) B", "category": "Pendidikan", "image": "images/fpsd-b.jpg", "description": "Gedung B FPSD UPI menampung studio pertunjukan seni, ruang latihan tari, dan fasilitas produksi musik. Mahasiswa seni pertunjukan aktif menggunakan gedung ini untuk produksi karya dan persiapan pameran seni. Gedung ini juga menjadi venue pertunjukan seni kecil yang terbuka untuk civitas akademika.", "hours": "Senin–Jumat: 07.00–17.00", "floors": 4, "phone": "(022) 2013163 ext. 2402", "facilities": [ "Studio Tari", "Ruang Musik", "Studio Pertunjukan", "Ruang Latihan" ], "LinkWeb": "https://www.upi.edu/id/fakultas-dan-sekolah/fakultas-pendidikan-seni-dan-desain" }, "geometry": { "type": "Point", "coordinates": [ 107.59360601, -6.86172165 ] } },
{ "type": "Feature", "properties": { "name": "Gedung Fakultas Pendidikan Teknik dan Industri (FPTI) D", "category": "Pendidikan", "image": "images/fpti-a.jpg", "description": "Gedung D FPTI UPI adalah gedung utama yang menampung kantor dekan, administrasi fakultas, dan ruang kuliah program teknik vokasional. FPTI menyelenggarakan program studi teknik elektro, teknik mesin, teknik bangunan, tata boga, dan busana. Lulusan FPTI banyak berkontribusi dalam pengembangan pendidikan vokasional di seluruh Indonesia.", "hours": "Senin–Jumat: 07.00–17.00", "floors": 7, "phone": "(022) 2013163 ext. 2800", "facilities": [ "Kantor Dekan", "Ruang Kuliah Utama", "Lab Teknologi", "Perpustakaan Teknik", "Aula Teknik" ], "LinkWeb": "https://www.upi.edu/id/fakultas-dan-sekolah/fakultas-pendidikan-teknik-dan-industri" }, "geometry": { "type": "Point", "coordinates": [ 107.59270793, -6.86369401 ] } },
{ "type": "Feature", "properties": { "name": "Gedung Fakultas Pendidikan Teknik dan Industri (FPTI) C", "category": "Pendidikan", "image": "images/fpti-b.jpg", "description": "Gedung C FPTI UPI menampung laboratorium teknik sipil, studio arsitektur pendidikan, dan ruang kuliah kapasitas sedang. Mahasiswa teknik bangunan aktif menggunakan fasilitas ini untuk praktikum konstruksi dan perancangan. Peralatan teknisnya diperbarui secara berkala mengikuti standar industri terkini.", "hours": "Senin–Jumat: 07.00–17.00", "floors": 5, "phone": "(022) 2013163 ext. 2803", "facilities": [ "Lab Teknik Sipil", "Studio Arsitektur", "Ruang Kuliah", "Bengkel Material" ], "LinkWeb": "https://www.upi.edu/id/fakultas-dan-sekolah/fakultas-pendidikan-teknik-dan-industri" }, "geometry": { "type": "Point", "coordinates": [ 107.59318504, -6.86373382 ] } },
{ "type": "Feature", "properties": { "name": "Gedung Fakultas Pendidikan Teknik dan Industri (FPTI) A", "category": "Pendidikan & Riset", "image": "images/fpti-c.jpg", "description": "Gedung A FPTI UPI digunakan untuk kegiatan penelitian dan pengembangan di bidang teknologi rekayasa dan keteknikan. Tersedia laboratorium elektronika, workshop mekanik, dan ruang riset untuk mendukung tugas akhir dan penelitian dosen. Program studi teknik elektro dan komputer memanfaatkan fasilitas canggih di gedung ini.", "hours": "Senin–Jumat: 07.00–17.00", "floors": 5, "phone": "(022) 2013163 ext. 2802", "facilities": [ "Lab Elektronika", "Workshop Mekanik", "Ruang Riset", "Lab CNC" ], "LinkWeb": "https://www.upi.edu/id/fakultas-dan-sekolah/fakultas-pendidikan-teknik-dan-industri" }, "geometry": { "type": "Point", "coordinates": [ 107.59304471, -6.86419556 ] } },
{ "type": "Feature", "properties": { "name": "Gedung Fakultas Pendidikan Teknik dan Industri (FPTI) B", "category": "Pendidikan", "image": "images/fpti-d.jpg", "description": "Gedung B FPTI UPI menampung laboratorium industri, bengkel tata boga, dan ruang pameran karya mahasiswa teknik. Mahasiswa program studi tata boga dan busana aktif memanfaatkan dapur produksi dan studio desain di gedung ini. Fasilitas pamerannya digunakan untuk showcase produk dan inovasi mahasiswa vokasional.", "hours": "Senin–Jumat: 07.00–17.00", "floors": 4, "phone": "(022) 2013163 ext. 2801", "facilities": [ "Dapur Produksi", "Studio Busana", "Lab Industri", "Ruang Pameran" ], "LinkWeb": "https://www.upi.edu/id/fakultas-dan-sekolah/fakultas-pendidikan-teknik-dan-industri" }, "geometry": { "type": "Point", "coordinates": [ 107.59387463, -6.86423138 ] } },
{ "type": "Feature", "properties": { "name": "Gedung Garnadi", "category": "Fasilitas", "image": "images/garnadi.jpg", "description": "Gedung Garnadi UPI merupakan gedung serbaguna yang digunakan untuk berbagai kegiatan pertemuan, pelatihan, dan administrasi unit tertentu. Lokasinya yang strategis di tengah kampus membuatnya mudah diakses dari berbagai gedung akademik. Sering digunakan untuk workshop, seminar kecil, dan rapat koordinasi.", "hours": "Senin–Jumat: 08.00–16.00", "floors": 3, "phone": "(022) 2013163", "facilities": [ "Aula Serbaguna", "Ruang Rapat", "Ruang Pelatihan" ], "LinkWeb": "https://sarpras.upi.edu/gedung-garnadi-fpeb-foto-lama-dan-baru/" }, "geometry": { "type": "Point", "coordinates": [ 107.59306476, -6.86066879 ] } },
{ "type": "Feature", "properties": { "name": "Gedung Isola (Rektorat UPI)", "category": "Landmark", "image": "images/isola.jpg", "description": "Gedung ikonik bergaya Art Deco yang dibangun tahun 1933, kini menjadi pusat administrasi universitas (Rektorat) dan simbol sejarah UPI. Ditetapkan sebagai cagar budaya Kota Bandung, gedung ini wajib dilestarikan keindahan arsitekturnya. Menjadi destinasi foto favorit mahasiswa baru dan tamu kampus dari seluruh penjuru Indonesia.", "hours": "Senin–Jumat: 08.00–16.00", "floors": 3, "phone": "(022) 2013163", "facilities": [ "Ruang Rektor", "Ruang Rapat Pimpinan", "Taman Bersejarah", "Area Foto" ], "LinkWeb": "https://berita.upi.edu/melirik-sekilas-gedung-isola-bumi-siliwangi/" }, "geometry": { "type": "Point", "coordinates": [ 107.59437178, -6.86120617 ] } },
{ "type": "Feature", "properties": { "name": "Gedung Lembaga Penelitian dan Pengabdian Masyarakat (LPPM)", "category": "Lembaga", "image": "images/lppm.jpg", "description": "LPPM UPI mengkoordinasikan kegiatan penelitian, publikasi ilmiah, dan program pengabdian masyarakat civitas akademika. Lembaga ini mengelola berbagai hibah penelitian nasional dan internasional, serta program KKN mahasiswa. LPPM menjadi jembatan antara dunia akademik UPI dengan kebutuhan nyata masyarakat.", "hours": "Senin–Jumat: 08.00–16.00", "floors": 4, "phone": "(022) 2013163 ext. 1234", "facilities": [ "Ruang Administrasi Riset", "Ruang Seminar", "Perpustakaan Riset", "Pojok KKN" ], "LinkWeb": "https://lppm.upi.edu/" }, "geometry": { "type": "Point", "coordinates": [ 107.59194617, -6.86017919 ] } },
{ "type": "Feature", "properties": { "name": "Gedung Pendidikan Profesi Guru (PPG)", "category": "Pendidikan", "image": "images/ppg.jpg", "description": "Gedung PPG UPI digunakan untuk program pendidikan profesi guru yang mempersiapkan calon guru profesional bersertifikat. Program PPG di UPI terakreditasi unggul dan menerima peserta dari berbagai daerah di Indonesia. Fasilitas micro teaching dan ruang seminar mendukung pelatihan mengajar yang komprehensif.", "hours": "Senin–Jumat: 07.00–17.00", "floors": 5, "phone": "(022) 2013163 ext. 2601", "facilities": [ "Ruang Kuliah PPG", "Lab Micro Teaching", "Ruang Seminar", "Asrama PPG" ], "LinkWeb": null }, "geometry": { "type": "Point", "coordinates": [ 107.59235111, -6.8612619 ] } },
{ "type": "Feature", "properties": { "name": "Gedung Sekolah Pasca Sarjana (SPS) A", "category": "Pendidikan", "image": "images/sps-a.jpg", "description": "Gedung utama Sekolah Pascasarjana (SPS) UPI menyelenggarakan program magister dan doktoral di berbagai bidang pendidikan. SPS merupakan pusat kajian tingkat lanjut yang menghasilkan para akademisi, peneliti, dan pemimpin pendidikan berkualitas. Dilengkapi dengan ruang seminar, perpustakaan khusus, dan fasilitas riset terdepan.", "hours": "Senin–Jumat: 08.00–17.00", "floors": 7, "phone": "(022) 2013163 ext. 3001", "facilities": [ "Ruang Seminar Internasional", "Perpustakaan SPS", "Lab Riset Lanjut", "Ruang Sidang Doktor" ], "LinkWeb": "https://www.upi.edu/id/fakultas-dan-sekolah/sekolah-pascasarjana" }, "geometry": { "type": "Point", "coordinates": [ 107.59301665, -6.8625715 ] } },
{ "type": "Feature", "properties": { "name": "Gedung Pasca Sarjana", "category": "Pendidikan", "image": "images/sps-b.jpg", "description": "Gedung Pasca Sarjana UPI digunakan untuk kegiatan perkuliahan, bimbingan, dan diskusi mahasiswa program magister dan doktor. Ruang kelas berteknologi tinggi dan ruang konsultasi dengan promotor mendukung penyelesaian studi pascasarjana. Suasana akademiknya yang kondusif sangat mendukung produktivitas riset mahasiswa.", "hours": "Senin–Jumat: 08.00–17.00", "floors": 5, "phone": "(022) 2013163 ext. 3002", "facilities": [ "Ruang Kuliah Pascasarjana", "Ruang Konsultasi Promotor", "Ruang Diskusi Riset" ], "LinkWeb": "https://www.upi.edu/id/fakultas-dan-sekolah/sekolah-pascasarjana" }, "geometry": { "type": "Point", "coordinates": [ 107.5924353, -6.8626949 ] } },
{ "type": "Feature", "properties": { "name": "Gymnasium UPI", "category": "Olahraga", "image": "images/gymnasium.jpg", "description": "Gedung olahraga indoor berstandar internasional yang digunakan untuk kompetisi basket, voli, dan kegiatan mahasiswa berskala besar. Gymnasium UPI memiliki kapasitas penonton ribuan orang dan sering menjadi venue pertandingan tingkat nasional. Dikelola oleh FPOK dan terbuka untuk mahasiswa di luar jam pertandingan resmi.", "hours": "Senin–Sabtu: 07.00–21.00", "floors": 2, "phone": "(022) 2013163 ext. 5100", "facilities": [ "Lapangan Basket Indoor", "Lapangan Voli Indoor", "Lapangan Bulu Tangkis", "Tribun", "Ruang Ganti" ], "LinkWeb": null }, "geometry": { "type": "Point", "coordinates": [ 107.5900538, -6.85993239 ] } },
{ "type": "Feature", "properties": { "name": "Isola Resort UPI", "category": "Fasilitas", "image": "images/isola-resort.jpg", "description": "Unit usaha hotel dan penginapan milik UPI yang melayani tamu universitas dan menyediakan pusat pelatihan hospitalitas. Fasilitas hotel bintang tiga ini meliputi kamar-kamar yang nyaman, ruang meeting berteknologi modern, dan restoran dengan menu berkualitas. Sering digunakan untuk kegiatan seminar internasional, workshop, dan akomodasi tamu VIP universitas.", "hours": "24 Jam", "floors": 4, "phone": "(022) 2013028", "facilities": [ "Kamar Hotel", "Ruang Meeting", "Restoran", "WiFi", "Area Parkir" ], "LinkWeb": null }, "geometry": { "type": "Point", "coordinates": [ 107.58971902, -6.86241825 ] } },
{ "type": "Feature", "properties": { "name": "Kantin PKM", "category": "Kuliner", "image": "images/kantin-pkm.jpg", "description": "Kantin PKM adalah pusat kuliner favorit mahasiswa yang menyajikan berbagai pilihan makanan dan minuman dengan harga terjangkau. Letaknya yang strategis di dekat Pusat Kegiatan Mahasiswa menjadikannya tempat favorit bersantai dan berdiskusi. Tersedia puluhan kios menyajikan nasi rames, mie, jajanan, kopi, dan aneka minuman kekinian.", "hours": "Senin–Sabtu: 07.00–20.00", "floors": 1, "phone": "", "facilities": [ "Aneka Kios Makan", "Area Makan Bersama", "Warung Kopi", "Jajanan Ringan" ], "LinkWeb": null }, "geometry": { "type": "Point", "coordinates": [ 107.59350578, -6.8624083 ] } },
{ "type": "Feature", "properties": { "name": "Kolam Renang UPI", "category": "Olahraga", "image": "images/kolam-renang.jpg", "description": "Kolam renang UPI berstandar nasional digunakan untuk perkuliahan renang mahasiswa dan pelatihan tim renang kampus. Sistem penyaringan air modern menjaga kualitas air tetap bersih dan sehat. Juga terbuka untuk masyarakat umum di luar jam perkuliahan dengan tiket masuk yang terjangkau.", "hours": "Senin–Sabtu: 06.00–18.00", "floors": 1, "phone": "", "facilities": [ "Kolam 50m", "Kolam Anak", "Ruang Ganti", "Tribun Penonton" ] }, "geometry": { "type": "Point", "coordinates": [ 107.58800707, -6.85951443 ] } },
{ "type": "Feature", "properties": { "name": "Lapang Basket UPI", "category": "Olahraga", "image": "images/lap-basket.jpg", "description": "Lapangan basket outdoor UPI berada di area timur kampus dan aktif digunakan mahasiswa untuk latihan dan pertandingan. Fasilitas ini terbuka untuk umum di luar jam latihan resmi tim basket UPI. Menjadi salah satu titik kumpul populer mahasiswa untuk berolahraga sambil bersosialisasi.", "hours": "Setiap hari: 06.00–21.00", "floors": 1, "phone": "", "facilities": [ "Lapangan Basket Outdoor", "Ring Basket Standar", "Bangku Pinggir Lapangan" ] }, "geometry": { "type": "Point", "coordinates": [ 107.59408311, -6.85963186 ] } },
{ "type": "Feature", "properties": { "name": "Lapang Golf UPI", "category": "Olahraga", "image": "images/lap-golf.jpg", "description": "Lapangan golf UPI menyediakan fasilitas olahraga golf yang langka di lingkungan kampus perguruan tinggi. Digunakan untuk perkuliahan olahraga golf dan pelatihan mahasiswa spesialisasi golf FPOK. Menjadikan UPI sebagai kampus dengan fasilitas olahraga paling lengkap di Indonesia.", "hours": "Senin–Sabtu: 06.00–17.00", "floors": 1, "phone": "", "facilities": [ "Fairway Golf", "Putting Green", "Driving Range", "Ruang Penyimpanan Alat" ] }, "geometry": { "type": "Point", "coordinates": [ 107.58969196, -6.85846853 ] } },
{ "type": "Feature", "properties": { "name": "Lapangan SMA Laboratorium School UPI", "category": "Olahraga", "image": "images/lap-sma.jpg", "description": "Lapangan olahraga SMA Lab School UPI digunakan untuk pendidikan jasmani, latihan ekstrakurikuler, dan kompetisi antar sekolah. Fasilitas lapangannya terpelihara dengan baik untuk mendukung aktivitas fisik siswa secara optimal. Kegiatan olahraga siswa SMA Lab School dilaksanakan aktif di sini setiap hari.", "hours": "Senin–Sabtu: 07.00–15.00", "floors": 1, "phone": "", "facilities": [ "Lapangan Sepak Bola Mini", "Lapangan Basket", "Area Atletik" ] }, "geometry": { "type": "Point", "coordinates": [ 107.59235011, -6.86171668 ] } },
{ "type": "Feature", "properties": { "name": "Lapang SMP Laboratorium School UPI", "category": "Olahraga", "image": "images/lap-smp.jpg", "description": "Lapangan SMP Lab School UPI digunakan untuk kegiatan olahraga dan ekstrakurikuler siswa SMP setiap hari. Fasilitas ini terawat dengan baik dan dikelola bersama dengan fasilitas akademik SMP Lab School. Kegiatan olahraga siswa sangat aktif di lapangan ini sebagai bagian dari kurikulum pendidikan jasmani.", "hours": "Senin–Sabtu: 07.00–15.00", "floors": 1, "phone": "", "facilities": [ "Lapangan Bola", "Area Olahraga Serbaguna", "Trek Lari Mini" ] }, "geometry": { "type": "Point", "coordinates": [ 107.591873, -6.86182813 ] } },
{ "type": "Feature", "properties": { "name": "Lapangan Softball UPI", "category": "Olahraga", "image": "images/softball.jpg", "description": "Lapangan softball UPI digunakan untuk kegiatan olahraga softball dan baseball mahasiswa FPOK. Fasilitas ini dikelola untuk perkuliahan praktik dan latihan rutin tim softball UPI yang aktif berkompetisi. Tim softball UPI dikenal berprestasi di tingkat regional Jawa Barat.", "hours": "Setiap hari: 06.00–18.00", "floors": 1, "phone": "", "facilities": [ "Lapangan Softball Standar", "Home Base", "Area Pendukung" ] }, "geometry": { "type": "Point", "coordinates": [ 107.59067824, -6.85961494 ] } },
{ "type": "Feature", "properties": { "name": "Masjid Al-Furqon UPI", "category": "Ibadah", "image": "images/masjid.jpg", "description": "Masjid Al-Furqon adalah masjid utama kampus UPI yang mampu menampung ribuan jamaah dan menjadi pusat kehidupan spiritual kampus. Aktif digunakan untuk shalat berjamaah lima waktu, shalat Jumat, kajian rutin, dan berbagai kegiatan keislaman. Bangunannya yang megah dan arsitekturnya yang indah menjadikannya landmark spiritual kampus UPI.", "hours": "24 Jam (ibadah) | Kantor: 08.00–16.00", "floors": 2, "phone": "(022) 2013163 ext. 6001", "facilities": [ "Ruang Shalat Utama (±2000 jamaah)", "Tempat Wudhu", "Perpustakaan Islam", "Aula Kajian" ] }, "geometry": { "type": "Point", "coordinates": [ 107.59351079, -6.86314569 ] } },
{ "type": "Feature", "properties": { "name": "Museum Pendidikan Nasional UPI", "category": "Fasilitas", "image": "images/museum.jpg", "description": "Museum Pendidikan Nasional UPI mendokumentasikan perjalanan sejarah pendidikan di Indonesia dari masa ke masa. Koleksinya mencakup benda-benda bersejarah, dokumen, foto, dan artefak perkembangan dunia pendidikan Indonesia. Menjadi destinasi wisata edukasi penting bagi pelajar, mahasiswa, dan masyarakat yang ingin memahami sejarah pendidikan bangsa.", "hours": "Selasa–Minggu: 09.00–16.00", "floors": 4, "phone": "(022) 2013163 ext. 8001", "facilities": [ "Galeri Pameran Tetap", "Ruang Audio Visual", "Perpustakaan Sejarah", "Toko Souvenir", "Ruang Edukasi" ], "LinkWeb": "https://museumpendidikannasional.upi.edu/" }, "geometry": { "type": "Point", "coordinates": [ 107.59421843, -6.85980999 ] } },
{ "type": "Feature", "properties": { "name": "Perpustakaan UPI", "category": "Fasilitas", "image": "images/perpustakaan.jpg", "description": "Perpustakaan pusat UPI adalah pusat sumber informasi digital dan literatur fisik terlengkap untuk mendukung riset dan literasi akademik mahasiswa. Koleksinya mencakup jutaan judul buku, ribuan jurnal ilmiah internasional, dan database digital berlangganan. Dilengkapi ruang baca nyaman, ruang diskusi, akses internet, dan layanan referensi oleh pustakawan berpengalaman.", "hours": "Senin–Jumat: 08.00–20.00 | Sabtu: 08.00–15.00", "floors": 5, "phone": "(022) 2013163 ext. 4321", "facilities": [ "Ruang Baca Nyaman", "Akses Internet", "Ruang Diskusi", "Layanan Referensi", "Loker", "Fotokopi & Print" ], "LinkWeb": "https://perpustakaan.upi.edu/fasilitas-perpustakaan/" }, "geometry": { "type": "Point", "coordinates": [ 107.5916986, -6.86112357 ] } },
{ "type": "Feature", "properties": { "name": "Poliklinik UPI", "category": "Kesehatan", "image": "images/poliklinik.jpg", "description": "Poliklinik UPI menyediakan layanan kesehatan dasar bagi mahasiswa, dosen, dan karyawan universitas secara gratis dengan identitas kampus. Fasilitas medis ini dilengkapi dokter umum, perawat profesional, dan obat-obatan esensial untuk penanganan penyakit ringan. Poliklinik juga mengelola program kesehatan preventif dan pemeriksaan rutin bagi civitas akademika.", "hours": "Senin–Jumat: 08.00–16.00", "floors": 1, "phone": "(022) 2013163 ext. 5001", "facilities": [ "Ruang Periksa", "Apotek", "Ruang Tunggu", "Penanganan UGD Ringan" ], "LinkWeb": "https://upt-layanankesehatan.upi.edu/" }, "geometry": { "type": "Point", "coordinates": [ 107.59305574, -6.8620391 ] } },
{ "type": "Feature", "properties": { "name": "Pusat Kegiatan Mahasiswa (PKM) UPI", "category": "Fasilitas", "image": "images/pkm.jpg", "description": "PKM UPI adalah pusat kegiatan organisasi dan kemahasiswaan yang menampung sekretariat berbagai Unit Kegiatan Mahasiswa (UKM) dan organisasi mahasiswa. Gedung ini menjadi tempat berkumpul, berorganisasi, dan mengembangkan soft skill serta jiwa kepemimpinan mahasiswa UPI. Di sinilah mahasiswa menemukan komunitas dan mengembangkan potensi diri di luar akademik.", "hours": "Senin–Minggu: 08.00–21.00", "floors": 3, "phone": "(022) 2013163 ext. 1200", "facilities": [ "Sekretariat UKM", "Aula Pertemuan", "Kantin", "Ruang Latihan", "Area Parkir" ], "LinkWeb": "https://dit-mawa.upi.edu/gedung-pkm/" }, "geometry": { "type": "Point", "coordinates": [ 107.59378141, -6.86243915 ] } },
{ "type": "Feature", "properties": { "name": "SMA Laboratorium School UPI", "category": "Pendidikan", "image": "images/sma-labs.jpg", "description": "SMA Lab School UPI menerapkan kurikulum inovatif yang terintegrasi dengan hasil riset pendidikan terbaru dari UPI. Sekolah ini menjadi laboratorium penerapan metode pembelajaran yang dikembangkan oleh para peneliti pendidikan UPI. Lulusannya dikenal berprestasi dan siap memasuki perguruan tinggi unggulan di Indonesia.", "hours": "Senin–Sabtu: 07.00–15.00", "floors": 4, "phone": "(022) 2013163 ext. 7001", "facilities": [ "Ruang Kelas Modern", "Lab IPA", "Lab Komputer", "Perpustakaan", "Lapangan Olahraga" ], "LinkWeb": "https://www.smalabupi.sch.id/" }, "geometry": { "type": "Point", "coordinates": [ 107.59235011, -6.86171668 ] } },
{ "type": "Feature", "properties": { "name": "SD Laboratorium School UPI", "category": "Pendidikan", "image": "images/sd-labs.jpg", "description": "SD Lab School UPI menerapkan pendekatan pembelajaran aktif dan kreatif yang sesuai dengan penelitian pendidikan dasar terbaru. Sekolah ini menjadi pusat riset pendidikan tingkat dasar yang menghasilkan praktik terbaik pembelajaran untuk seluruh Indonesia. Lingkungan belajarnya yang kondusif mendukung perkembangan kognitif dan karakter siswa secara holistik.", "hours": "Senin–Sabtu: 07.00–14.00", "floors": 3, "phone": "(022) 2013163 ext. 7002", "facilities": [ "Ruang Kelas", "Lab IPA", "Perpustakaan", "Lapangan Bermain", "Kantin Sekolah" ], "LinkWeb": "https://sd-labschool.upi.edu/" }, "geometry": { "type": "Point", "coordinates": [ 107.59149075, -6.8616294 ] } },
{ "type": "Feature", "properties": { "name": "SMP Laboratorium School UPI", "category": "Pendidikan", "image": "images/smp-labs.jpg", "description": "SMP Lab School UPI menyelenggarakan pendidikan menengah pertama berbasis inovasi yang menjadi tempat praktik mengajar mahasiswa kependidikan UPI. Kurikulumnya mengintegrasikan pembelajaran berbasis teknologi, pengembangan karakter, dan keterampilan abad 21. Sekolah ini dikenal menghasilkan siswa yang kompeten, berkarakter, dan siap belajar di SMA unggulan.", "hours": "Senin–Sabtu: 07.00–14.00", "floors": 3, "phone": "(022) 2013163 ext. 7003", "facilities": [ "Ruang Kelas", "Lab Komputer", "Perpustakaan", "Lapangan Olahraga", "Laboratorium Sains" ], "LinkWeb": "https://smplabupi.sch.id/" }, "geometry": { "type": "Point", "coordinates": [ 107.59175765, -6.86218827 ] } },
{ "type": "Feature", "properties": { "name": "Gedung Fakultas Pendidikan Matematika dan IPA (FPMIPA) C", "category": "Pendidikan", "image": "images/fpmipa-c.jpg", "description": "Gedung C FPMIPA UPI digunakan untuk perkuliahan lanjutan dan kegiatan laboratorium penelitian ilmu sains terapan. Gedung ini menampung studio komputasi, laboratorium kimia organik, dan ruang presentasi modern untuk mahasiswa. Mahasiswa S2 dan S3 aktif menggunakan fasilitas riset di gedung ini untuk pengerjaan tesis dan disertasi.", "hours": "Senin–Jumat: 07.00–17.00", "floors": 5, "phone": "(022) 2013163 ext. 2204", "facilities": [ "Studio Komputasi", "Lab Kimia Organik", "Ruang Presentasi", "Ruang Penelitian" ], "LinkWeb": "https://www.upi.edu/id/fakultas-dan-sekolah/fakultas-pendidikan-matematika-dan-ilmu-pengetahuan-alam" }, "geometry": { "type": "Point", "coordinates": [ 107.59077864, -6.86199074 ] } },
{ "type": "Feature", "properties": { "name": "Lapangan Tennis Indoor UPI", "category": "Olahraga", "image": "images/tennis-indoor.jpg", "description": "Lapangan tenis indoor UPI merupakan fasilitas olahraga tenis dalam ruangan berstandar nasional yang dapat digunakan sepanjang waktu. Dilengkapi dengan pencahayaan optimal dan permukaan lapangan berkualitas internasional yang tahan lama. Sering digunakan untuk latihan tim tenis UPI dan penyelenggaraan turnamen regional.", "hours": "Senin–Sabtu: 07.00–21.00", "floors": 1, "phone": "", "facilities": [ "Lapangan Tenis Indoor", "Tribun Penonton", "Ruang Ganti" ] }, "geometry": { "type": "Point", "coordinates": [ 107.58899289, -6.8613042 ] } },
{ "type": "Feature", "properties": { "name": "Lapangan SD Labschool UPI", "category": "Olahraga", "image": "images/lapang-sd.jpg", "description": "Lapangan olahraga SD Lab School UPI digunakan untuk kegiatan pendidikan jasmani dan rekreasi siswa sekolah dasar. Area yang aman dan terawat ini menyediakan ruang bermain yang menyenangkan dan mendukung perkembangan motorik siswa. Dikelola terintegrasi dengan program akademik SD Lab School.", "hours": "Senin–Sabtu: 07.00–15.00", "floors": 1, "phone": "", "facilities": [ "Lapangan Serbaguna", "Area Bermain", "Trek Lari Mini" ] }, "geometry": { "type": "Point", "coordinates": [ 107.5914677, -6.86181489 ] } },
{ "type": "Feature", "properties": { "name": "Sport Hall UPI", "category": "Olahraga", "image": "images/sporthall.jpg", "description": "Sport Hall UPI merupakan fasilitas olahraga indoor modern yang menunjang kegiatan mahasiswa dan atlet kampus. Gedung ini sering digunakan untuk kompetisi olahraga regional dan nasional berbagai cabang. Dikelola oleh Fakultas Pendidikan Olahraga dan Kesehatan (FPOK) dengan standar pengelolaan yang profesional.", "hours": "Senin–Sabtu: 07.00–21.00", "floors": 2, "phone": "(022) 2013163 ext. 5101", "facilities": [ "Lapangan Serbaguna", "Ruang Ganti", "Tribun", "Gudang Peralatan" ] }, "geometry": { "type": "Point", "coordinates": [ 107.58988576, -6.85936743 ] } },
{ "type": "Feature", "properties": { "name": "Stadion UPI", "category": "Olahraga", "image": "images/stadion.jpg", "description": "Stadion UPI adalah fasilitas olahraga outdoor utama berupa lapangan sepak bola berumput dan lintasan atletik berstandar nasional. Stadion ini berkapasitas besar dengan tribun penonton yang representatif, sering menjadi venue pertandingan tingkat regional. Menjadi kebanggaan UPI sebagai kampus dengan fasilitas olahraga terlengkap di Indonesia.", "hours": "Senin–Sabtu: 06.00–18.00", "floors": 1, "phone": "", "facilities": [ "Lapangan Sepak Bola", "Lintasan Atletik", "Tribun Penonton", "Ruang Ganti", "Lampu Stadion" ] }, "geometry": { "type": "Point", "coordinates": [ 107.58903656, -6.85948306 ] } },
{ "type": "Feature", "properties": { "name": "Water Treatment Plant UPI", "category": "Fasilitas", "image": "images/water-treatment.jpg", "description": "Fasilitas pengolahan air bersih milik UPI yang memastikan ketersediaan air bersih untuk seluruh kawasan kampus. Unit ini beroperasi secara mandiri untuk memenuhi kebutuhan air bersih gedung-gedung universitas. Menjadi bagian dari komitmen UPI terhadap pengelolaan lingkungan kampus yang berkelanjutan.", "hours": "Operasional 24 Jam", "floors": 1, "phone": "(022) 2013163 ext. 5200", "facilities": [ "Unit Pengolahan Air", "Pompa Distribusi", "Sistem Monitoring" ], "LinkWeb": "https://sarpras.upi.edu/water-treatment-plant-wtp-atau-instalasi-pengolahan-air-ipa-universitas-pendidikan-indonesia/" }, "geometry": { "type": "Point", "coordinates": [ 107.58971592, -6.85775104 ] } },
{ "type": "Feature", "properties": { "name": "University Center (UC) UPI", "category": "Administrasi", "image": "images/university-center.jpg", "description": "University Center UPI adalah pusat pelayanan administratif terpadu yang menampung kantor-kantor utama pimpinan universitas. Di sini terdapat kantor Wakil Rektor, Biro Keuangan, dan berbagai unit administrasi pusat kampus. Gedung ini menjadi pusat tata kelola dan koordinasi seluruh kegiatan universitas secara terintegrasi.", "hours": "Senin–Jumat: 08.00–16.00", "floors": 8, "phone": "(022) 2013163", "facilities": [ "Kantor Wakil Rektor", "Biro Keuangan", "Ruang Rapat Pimpinan", "Lobi Utama", "Lift" ] }, "geometry": { "type": "Point", "coordinates": [ 107.59235087, -6.86076942 ] } },
{ "type": "Feature", "properties": { "name": "Kantor Hukum UPI", "category": "Administrasi", "image": "images/kantor-hukum.jpg", "description": "Kantor Hukum UPI menangani aspek legal dan hukum yang berkaitan dengan kegiatan universitas. Layanan yang tersedia meliputi konsultasi hukum, pengurusan kontrak, dan penanganan sengketa. Kantor ini memastikan seluruh kegiatan universitas berjalan sesuai dengan peraturan perundang-undangan yang berlaku.", "hours": "Senin–Jumat: 08.00–16.00", "floors": 2, "phone": "(022) 2013163 ext. 1400", "facilities": [ "Ruang Konsultasi", "Ruang Arsip Hukum", "Ruang Rapat" ], "LinkWeb": "https://birosdm.upi.edu/daftar-pejabat-upi/kantor-hukum/" }, "geometry": { "type": "Point", "coordinates": [ 107.59483782, -6.86155713 ] } },
{ "type": "Feature", "properties": { "name": "Kantor Pengadaan Barang dan Jasa (KUKPBJ)", "category": "Administrasi", "image": "images/kukpbj.jpg", "description": "Unit Kerja Pengadaan Barang dan Jasa UPI bertanggung jawab atas proses pengadaan seluruh kebutuhan universitas secara transparan. Kantor ini mengelola tender, lelang, dan pembelian langsung sesuai dengan regulasi pemerintah yang berlaku. Transparansi dan akuntabilitas pengadaan menjadi komitmen utama unit ini.", "hours": "Senin–Jumat: 08.00–16.00", "floors": 2, "phone": "(022) 2013163 ext. 1401", "facilities": [ "Ruang Administrasi", "Ruang Rapat Tender", "Ruang Arsip" ], "LinkWeb": "https://ukpbj.upi.edu/" }, "geometry": { "type": "Point", "coordinates": [ 107.59528183, -6.86215213 ] } },
{ "type": "Feature", "properties": { "name": "Pool Kendaraan UPI", "category": "Fasilitas", "image": "images/pool-kendaraan.jpg", "description": "Fasilitas pengelolaan kendaraan operasional UPI yang melayani kebutuhan transportasi kegiatan kampus. Di sini tersedia kendaraan dinas untuk mendukung kegiatan akademik, administrasi, dan layanan mahasiswa. Dikelola oleh Bagian Umum dan Perlengkapan UPI.", "hours": "Senin–Jumat: 07.00–16.00", "floors": 1, "phone": "(022) 2013163 ext. 5300", "facilities": [ "Garasi Kendaraan", "Bengkel Perawatan", "Ruang Administrasi" ], "LinkWeb": null }, "geometry": { "type": "Point", "coordinates": [ 107.59214221, -6.8590615 ] } },
{ "type": "Feature", "properties": { "name": "Rumah Jabatan Rektor UPI", "category": "Fasilitas", "image": "images/rumah-rektor.jpg", "description": "Rumah dinas jabatan Rektor UPI yang terletak di dalam kawasan kampus untuk kemudahan koordinasi pimpinan universitas. Fasilitas ini merupakan aset milik universitas yang dikelola secara resmi. Lingkungannya yang tenang dan asri mencerminkan kehormatan jabatan Rektor sebagai pimpinan tertinggi UPI.", "hours": "Hunian Pribadi (Tidak untuk Umum)", "floors": 2, "phone": "", "facilities": [ "Hunian Pribadi", "Taman", "Garasi" ] }, "geometry": { "type": "Point", "coordinates": [ 107.59581804, -6.86262428 ] } },
{ "type": "Feature", "properties": { "name": "Sekretariat IIK UPI", "category": "Fasilitas", "image": "images/sekre-iik.jpg", "description": "Sekretariat Ikatan Ibu-ibu Keluarga (IIK) UPI adalah kantor organisasi sosial kemasyarakatan keluarga besar civitas akademika UPI. IIK aktif menyelenggarakan kegiatan sosial, pengembangan kapasitas, dan pemberdayaan keluarga warga UPI. Sekretariat ini menjadi pusat koordinasi berbagai program sosial dan kemanusiaan IIK UPI.", "hours": "Senin–Jumat: 09.00–15.00", "floors": 1, "phone": "(022) 2013163 ext. 1500", "facilities": [ "Ruang Sekretariat", "Ruang Pertemuan" ] }, "geometry": { "type": "Point", "coordinates": [ 107.59514596, -6.86187993 ] } },
{ "type": "Feature", "properties": { "name": "Tempat Pengolahan Akhir Sampah (TPAS) UPI", "category": "Fasilitas", "image": "images/tpas.jpg", "description": "TPAS UPI adalah fasilitas pengelolaan sampah terpadu yang mendukung kampus hijau dan berkelanjutan. Sampah dari seluruh penjuru kampus diolah di sini melalui proses pemilahan, daur ulang, dan komposting. TPAS menjadi bagian dari program Green Campus UPI yang berkomitmen pada lingkungan yang bersih dan sehat.", "hours": "Operasional Setiap Hari", "floors": 1, "phone": "(022) 2013163 ext. 5201", "facilities": [ "Area Pemilahan Sampah", "Unit Komposting", "Gudang Daur Ulang" ] }, "geometry": { "type": "Point", "coordinates": [ 107.58909965, -6.85813647 ] } },
{ "type": "Feature", "properties": { "name": "Lapang Tennis Outdoor UPI", "category": "Olahraga", "image": "images/tennis-outdoor.jpg", "description": "Lapangan tenis outdoor UPI menyediakan beberapa lapangan berdampingan untuk kegiatan olahraga tenis mahasiswa dan civitas akademika. Digunakan untuk perkuliahan praktik tenis dan latihan tim tenis UPI yang aktif berkompetisi. Kondisi permukaan lapangannya terpelihara baik dan dapat digunakan sepanjang tahun.", "hours": "Setiap hari: 06.00–21.00", "floors": 1, "phone": "", "facilities": [ "Lapangan Tenis (4 lapangan)", "Tribun Kecil", "Area Istirahat" ] }, "geometry": { "type": "Point", "coordinates": [ 107.59139492, -6.86011178 ] } },
{ "type": "Feature", "properties": { "name": "Kantin FIP UPI", "category": "Kuliner", "image": "images/kantin-fip.jpg", "description": "Kantin yang berlokasi di kawasan Gedung FIP UPI menyajikan berbagai pilihan makanan dan minuman untuk mahasiswa dan staf FIP. Menjadi tempat santai dan berinteraksi sosial bagi civitas akademika FIP di sela-sela kesibukan akademik. Menu beragam dengan harga ramah di kantong mahasiswa tersedia setiap hari kerja.", "hours": "Senin–Jumat: 07.00–17.00", "floors": 1, "phone": "", "facilities": [ "Aneka Menu Makanan", "Minuman Segar", "Area Duduk" ] }, "geometry": { "type": "Point", "coordinates": [ 107.59065732, -6.86133551 ] } },
{ "type": "Feature", "properties": { "name": "Kantin FPIPS UPI", "category": "Kuliner", "image": "images/kantin-fpips.jpg", "description": "Kantin di kawasan FPIPS UPI menyajikan makanan dan minuman terjangkau untuk mahasiswa Fakultas Pendidikan Ilmu Pengetahuan Sosial dan sekitarnya. Pilihan menunya beragam dengan cita rasa yang familiar di lidah mahasiswa. Suasananya cukup ramai di jam istirahat perkuliahan, menjadi tempat diskusi favorit mahasiswa FPIPS.", "hours": "Senin–Jumat: 07.00–17.00", "floors": 1, "phone": "", "facilities": [ "Aneka Kios Makanan", "Area Makan", "Minuman Kekinian" ] }, "geometry": { "type": "Point", "coordinates": [ 107.59300476, -6.86093443 ] } },
{ "type": "Feature", "properties": { "name": "TK Laboratorium School UPI", "category": "Pendidikan", "image": "images/tk-labs.jpg", "description": "TK Lab School UPI menerapkan pendekatan pembelajaran anak usia dini yang inovatif berdasarkan riset terbaru dari ahli pendidikan UPI. Taman kanak-kanak ini menjadi pusat riset pendidikan anak usia dini dan mengembangkan model pembelajaran yang dicontoh secara nasional. Fasilitas bermainnya dirancang untuk mengoptimalkan tumbuh kembang kognitif dan motorik anak.", "hours": "Senin–Jumat: 07.00–13.00", "floors": 1, "phone": "(022) 2013163 ext. 7004", "facilities": [ "Ruang Kelas Tematik", "Area Bermain Indoor", "Taman Bermain", "Ruang Kreativitas" ], "LinkWeb": "https://tklabschoolupi.sch.id/" }, "geometry": { "type": "Point", "coordinates": [ 107.59125419, -6.86213166 ] } },
{ "type": "Feature", "properties": { "name": "Kantin SportHall", "category": null, "image": "images/kantin-sporthall.jpg", "description": null, "hours": null, "floors": null, "phone": null, "facilities": [ ], "LinkWeb": null }, "geometry": { "type": "Point", "coordinates": [ 107.589718004690923, -6.859460026335014 ] } },
{ "type": "Feature", "properties": { "name": "Indomaret Point", "category": null, "image": "images/idp.jpg", "description": null, "hours": null, "floors": null, "phone": null, "facilities": [ ], "LinkWeb": null }, "geometry": { "type": "Point", "coordinates": [ 107.591988106647619, -6.859775894650049 ] } },
{ "type": "Feature", "properties": { "name": "Kantin Dormitory", "category": null, "image": "images/kantin-dorm.jpg", "description": null, "hours": null, "floors": null, "phone": null, "facilities": [ ], "LinkWeb": null }, "geometry": { "type": "Point", "coordinates": [ 107.591553970360977, -6.859071771244134 ] } },
{ "type": "Feature", "properties": { "name": "Kantin FPEB A", "category": null, "image": "images/kantin-fpeb-a.jpg", "description": null, "hours": null, "floors": null, "phone": null, "facilities": [ ], "LinkWeb": null }, "geometry": { "type": "Point", "coordinates": [ 107.592196889747299, -6.8598153781747 ] } },
{ "type": "Feature", "properties": { "name": "Kantin FPEB B", "category": null, "image": "images/kantin-fpeb-b.jpg", "description": null, "hours": null, "floors": null, "phone": null, "facilities": [ ], "LinkWeb": null }, "geometry": { "type": "Point", "coordinates": [ 107.592296310270939, -6.860252987020381 ] } },
{ "type": "Feature", "properties": { "name": "Kantin FPSD A", "category": null, "image": "images/kantin-fpsd-a.jpg", "description": null, "hours": null, "floors": null, "phone": null, "facilities": [ ], "LinkWeb": null }, "geometry": { "type": "Point", "coordinates": [ 107.593164582844111, -6.859881184041845 ] } },
{ "type": "Feature", "properties": { "name": "Kantin Literasa (FPBS)", "category": null, "image": "images/kantin-literasa.jpg", "description": null, "hours": null, "floors": null, "phone": null, "facilities": [ ], "LinkWeb": null }, "geometry": { "type": "Point", "coordinates": [ 107.593873782579507, -6.86142103873707 ] } },
{ "type": "Feature", "properties": { "name": "Tomoro Coffee", "category": null, "image": "tomoro.jpg", "description": null, "hours": null, "floors": null, "phone": null, "facilities": [ ], "LinkWeb": null }, "geometry": { "type": "Point", "coordinates": [ 107.593254061315378, -6.86251670154572 ] } }
]
}
